<gpx version="1.1" creator="sample"><trk><trkseg><trkpt lat="28.62" lon="77.21"><time>2025-07-04T16:22:48.347583Z</time></trkpt><trkpt lat="28.6205" lon="77.2105"><time>2025-07-04T16:32:48.347583Z</time></trkpt><trkpt lat="28.621000000000002" lon="77.211"><time>2025-07-04T16:42:48.347583Z</time></trkpt><trkpt lat="28.6215" lon="77.21149999999999"><time>2025-07-04T16:52:48.347583Z</time></trkpt><trkpt lat="28.622" lon="77.21199999999999"><time>2025-07-04T17:02:48.347583Z</time></trkpt><trkpt lat="28.622500000000002" lon="77.21249999999999"><time>2025-07-04T17:12:48.347583Z</time></trkpt><trkpt lat="28.623" lon="77.213"><time>2025-07-04T17:22:48.347583Z</time></trkpt><trkpt lat="28.6235" lon="77.2135"><time>2025-07-04T17:32:48.347583Z</time></trkpt><trkpt lat="28.624000000000002" lon="77.214"><time>2025-07-04T17:42:48.347583Z</time></trkpt><trkpt lat="28.6245" lon="77.21449999999999"><time>2025-07-04T17:52:48.347583Z</time></trkpt></trkseg></trk></gpx>